{"type": "FeatureCollection", "features": [ {"type": "Feature", "properties": {"norad_id": 43565, "name": "GSAT0222 (GALILEO 26)", "group": "gnss", "lat": -3.637992346145789, "lon": 169.02919231996054, "alt_km": 23219.70562514041, "timestamp": "2025-12-17T17:50:19.494017+00:00", "meta": {"OBJECT_NAME": "GSAT0222 (GALILEO 26)", "OBJECT_ID": "2018-060B", "EPOCH": "2025-12-14T12:14:12.279840", "MEAN_MOTION": 1.70475606, "ECCENTRICITY": 0.00061133, "INCLINATION": 57.2308, "RA_OF_ASC_NODE": 346.7727, "ARG_OF_PERICENTER": 264.5011, "MEAN_ANOMALY": 95.4481, "EPHEMERIS_TYPE": 0, "CLASSIFICATION_TYPE": "U", "NORAD_CAT_ID": 43565, "ELEMENT_SET_NO": 999, "REV_AT_EPOCH": 4606, "BSTAR": 0, "MEAN_MOTION_DOT": -8.4e-07, "MEAN_MOTION_DDOT": 0}, "tle": {"line1": "1 43565U 18060B   25348.50986435 -.00000084  00000+0  00000+0 0  9991", "line2": "2 43565  57.2308 346.7727 0006113 264.5011  95.4481  1.70475606 46069"}}, "geometry": {"type": "Point", "coordinates": [169.02919231996054, -3.637992346145789]}}, {"type": "Feature", "properties": {"norad_id": 43566, "name": "GSAT0219 (GALILEO 23)", "group": "gnss", "lat": 39.16643230360392, "lon": 18.339464156300846, "alt_km": 23226.10604652241, "timestamp": "2025-12-17T17:50:19.494032+00:00", "meta": {"OBJECT_NAME": "GSAT0219 (GALILEO 23)", "OBJECT_ID": "2018-060C", "EPOCH": "2025-12-15T21:42:00.874656", "MEAN_MOTION": 1.70475845, "ECCENTRICITY": 0.00058258, "INCLINATION": 57.2298, "RA_OF_ASC_NODE": 346.7365, "ARG_OF_PERICENTER": 287.9846, "MEAN_ANOMALY": 71.9699, "EPHEMERIS_TYPE": 0, "CLASSIFICATION_TYPE": "U", "NORAD_CAT_ID": 43566, "ELEMENT_SET_NO": 999, "REV_AT_EPOCH": 4606, "BSTAR": 0, "MEAN_MOTION_DOT": -8.2e-07, "MEAN_MOTION_DDOT": 0}, "tle": {"line1": "1 43566U 18060C   25349.90417679 -.00000082  00000+0  00000+0 0  9994", "line2": "2 43566  57.2298 346.7365 0005825 287.9846  71.9699  1.70475845 46065"}}, "geometry": {"type": "Point", "coordinates": [18.339464156300846, 39.16643230360392]}}, {"type": "Feature", "properties": {"norad_id": 43567, "name": "GSAT0220 (GALILEO 24)", "group": "gnss", "lat": -57.080917006056076, "lon": -97.69019025970225, "alt_km": 23210.357124346585, "timestamp": "2025-12-17T17:50:19.494045+00:00", "meta": {"OBJECT_NAME": "GSAT0220 (GALILEO 24)", "OBJECT_ID": "2018-060D", "EPOCH": "2025-12-13T18:41:25.404000", "MEAN_MOTION": 1.70475925, "ECCENTRICITY": 0.00061008, "INCLINATION": 57.2299, "RA_OF_ASC_NODE": 346.7937, "ARG_OF_PERICENTER": 285.541, "MEAN_ANOMALY": 74.4106, "EPHEMERIS_TYPE": 0, "CLASSIFICATION_TYPE": "U", "NORAD_CAT_ID": 43567, "ELEMENT_SET_NO": 999, "REV_AT_EPOCH": 4601, "BSTAR": 0, "MEAN_MOTION_DOT": -8.5e-07, "MEAN_MOTION_DDOT": 0}, "tle": {"line1": "1 43567U 18060D   25347.77876625 -.00000085  00000+0  00000+0 0  9991", "line2": "2 43567  57.2299 346.7937 0006100 285.5410  74.4106  1.70475925 46015"}}, "geometry": {"type": "Point", "coordinates": [-97.69019025970225, -57.080917006056076]}}, {"type": "Feature", "properties": {"norad_id": 43581, "name": "BEIDOU-3 M5 (C23)", "group": "gnss", "lat": 53.79434565097623, "lon": -89.49198096068217, "alt_km": 21522.08312458181, "timestamp": "2025-12-17T17:50:19.494057+00:00", "meta": {"OBJECT_NAME": "BEIDOU-3 M5 (C23)", "OBJECT_ID": "2018-062A", "EPOCH": "2025-12-12T05:55:01.607232", "MEAN_MOTION": 1.86228672, "ECCENTRICITY": 0.00021016, "INCLINATION": 54.0891, "RA_OF_ASC_NODE": 188.6597, "ARG_OF_PERICENTER": 354.1416, "MEAN_ANOMALY": 5.9159, "EPHEMERIS_TYPE": 0, "CLASSIFICATION_TYPE": "U", "NORAD_CAT_ID": 43581, "ELEMENT_SET_NO": 999, "REV_AT_EPOCH": 5015, "BSTAR": 0, "MEAN_MOTION_DOT": 7.9e-07, "MEAN_MOTION_DDOT": 0}, "tle": {"line1": "1 43581U 18062A   25346.24654638  .00000079  00000+0  00000+0 0  9990", "line2": "2 43581  54.0891 188.6597 0002101 354.1416   5.9159  1.86228672 50154"}}, "geometry": {"type": "Point", "coordinates": [-89.49198096068217, 53.79434565097623]}}, {"type": "Feature", "properties": {"norad_id": 43582, "name": "BEIDOU-3 M6 (C24)", "group": "gnss", "lat": 2.2155345741373322, "lon": 6.861470421461335, "alt_km": 21542.018853528585, "timestamp": "2025-12-17T17:50:19.494072+00:00", "meta": {"OBJECT_NAME": "BEIDOU-3 M6 (C24)", "OBJECT_ID": "2018-062B", "EPOCH": "2025-12-16T22:36:47.503008", "MEAN_MOTION": 1.86229876, "ECCENTRICITY": 0.00079021, "INCLINATION": 54.0891, "RA_OF_ASC_NODE": 188.4892, "ARG_OF_PERICENTER": 48.1398, "MEAN_ANOMALY": 311.9965, "EPHEMERIS_TYPE": 0, "CLASSIFICATION_TYPE": "U", "NORAD_CAT_ID": 43582, "ELEMENT_SET_NO": 999, "REV_AT_EPOCH": 5024, "BSTAR": 0, "MEAN_MOTION_DOT": 1.14e-06, "MEAN_MOTION_DDOT": 0}, "tle": {"line1": "1 43582U 18062B   25350.94221647  .00000114  00000+0  00000+0 0  9993", "line2": "2 43582  54.0891 188.4892 0007902  48.1398 311.9965  1.86229876 50246"}}, "geometry": {"type": "Point", "coordinates": [6.861470421461335, 2.2155345741373322]}}, {"type": "Feature", "properties": {"norad_id": 43602, "name": "BEIDOU-3 M12 (C26)", "group": "gnss", "lat": -30.554982225841826, "lon": 32.4455377907621, "alt_km": 21557.91565132443, "timestamp": "2025-12-17T17:50:19.494083+00:00", "meta": {"OBJECT_NAME": "BEIDOU-3 M12 (C26)", "OBJECT_ID": "2018-067A", "EPOCH": "2025-12-15T19:20:53.031840", "MEAN_MOTION": 1.86227731, "ECCENTRICITY": 0.00092007, "INCLINATION": 54.1833, "RA_OF_ASC_NODE": 187.259, "ARG_OF_PERICENTER": 40.7418, "MEAN_ANOMALY": 319.394, "EPHEMERIS_TYPE": 0, "CLASSIFICATION_TYPE": "U", "NORAD_CAT_ID": 43602, "ELEMENT_SET_NO": 999, "REV_AT_EPOCH": 4970, "BSTAR": 0, "MEAN_MOTION_DOT": 1.15e-06, "MEAN_MOTION_DDOT": 0}, "tle": {"line1": "1 43602U 18067A   25349.80616935  .00000115  00000+0  00000+0 0  9993", "line2": "2 43602  54.1833 187.2590 0009200  40.7418 319.3940  1.86227731 49704"}}, "geometry": {"type": "Point", "coordinates": [32.4455377907621, -30.554982225841826]}}, {"type": "Feature", "properties": {"norad_id": 43603, "name": "BEIDOU-3 M11 (C25)", "group": "gnss", "lat": 39.25511476746997, "lon": -29.026633558592284, "alt_km": 21524.200950413913, "timestamp": "2025-12-17T17:50:19.494095+00:00", "meta": {"OBJECT_NAME": "BEIDOU-3 M11 (C25)", "OBJECT_ID": "2018-067B", "EPOCH": "2025-12-17T00:21:01.909152", "MEAN_MOTION": 1.86227265, "ECCENTRICITY": 0.00055837, "INCLINATION": 54.1803, "RA_OF_ASC_NODE": 187.182, "ARG_OF_PERICENTER": 36.4567, "MEAN_ANOMALY": 323.6478, "EPHEMERIS_TYPE": 0, "CLASSIFICATION_TYPE": "U", "NORAD_CAT_ID": 43603, "ELEMENT_SET_NO": 999, "REV_AT_EPOCH": 4975, "BSTAR": 0, "MEAN_MOTION_DOT": 1.14e-06, "MEAN_MOTION_DDOT": 0}, "tle": {"line1": "1 43603U 18067B   25351.01460543  .00000114  00000+0  00000+0 0  9991", "line2": "2 43603  54.1803 187.1820 0005583  36.4567 323.6478  1.86227265 49755"}}, "geometry": {"type": "Point", "coordinates": [-29.026633558592284, 39.25511476746997]}}, {"type": "Feature", "properties": {"norad_id": 43622, "name": "BEIDOU-3 M13 (C32)", "group": "gnss", "lat": 18.46240289848966, "lon": -124.10622446793447, "alt_km": 21539.011453712108, "timestamp": "2025-12-17T17:50:19.494130+00:00", "meta": {"OBJECT_NAME": "BEIDOU-3 M13 (C32)", "OBJECT_ID": "2018-072A", "EPOCH": "2025-12-15T21:31:53.202720", "MEAN_MOTION": 1.86231028, "ECCENTRICITY": 0.00060178, "INCLINATION": 56.4622, "RA_OF_ASC_NODE": 68.7153, "ARG_OF_PERICENTER": 299.0223, "MEAN_ANOMALY": 60.938, "EPHEMERIS_TYPE": 0, "CLASSIFICATION_TYPE": "U", "NORAD_CAT_ID": 43622, "ELEMENT_SET_NO": 999, "REV_AT_EPOCH": 4924, "BSTAR": 0, "MEAN_MOTION_DOT": -8.2e-07, "MEAN_MOTION_DDOT": 0}, "tle": {"line1": "1 43622U 18072A   25349.89714355 -.00000082  00000+0  00000+0 0  9999", "line2": "2 43622  56.4622  68.7153 0006017 299.0223  60.9380  1.86231028 49241"}}, "geometry": {"type": "Point", "coordinates": [-124.10622446793447, 18.46240289848966]}}, {"type": "Feature", "properties": {"norad_id": 43623, "name": "BEIDOU-3 M14 (C33)", "group": "gnss", "lat": -50.58572969132112, "lon": -57.66226222993178, "alt_km": 21533.138787261592, "timestamp": "2025-12-17T17:50:19.494144+00:00", "meta": {"OBJECT_NAME": "BEIDOU-3 M14 (C33)", "OBJECT_ID": "2018-072B", "EPOCH": "2025-12-14T16:31:43.622976", "MEAN_MOTION": 1.86230968, "ECCENTRICITY": 0.00033007, "INCLINATION": 56.4633, "RA_OF_ASC_NODE": 68.7492, "ARG_OF_PERICENTER": 334.4118, "MEAN_ANOMALY": 25.5906, "EPHEMERIS_TYPE": 0, "CLASSIFICATION_TYPE": "U", "NORAD_CAT_ID": 43623, "ELEMENT_SET_NO": 999, "REV_AT_EPOCH": 4921, "BSTAR": 0, "MEAN_MOTION_DOT": -8.3e-07, "MEAN_MOTION_DDOT": 0}, "tle": {"line1": "1 43623U 18072B   25348.68869934 -.00000083  00000+0  00000+0 0  9991", "line2": "2 43623  56.4633  68.7492 0003300 334.4118  25.5906  1.86230968 49219"}}, "geometry": {"type": "Point", "coordinates": [-57.66226222993178, -50.58572969132112]}}, {"type": "Feature", "properties": {"norad_id": 43647, "name": "BEIDOU-3 M16 (C35)", "group": "gnss", "lat": 29.75497086993231, "lon": 102.03287198273277, "alt_km": 21535.21043877957, "timestamp": "2025-12-17T17:50:19.494159+00:00", "meta": {"OBJECT_NAME": "BEIDOU-3 M16 (C35)", "OBJECT_ID": "2018-078A", "EPOCH": "2025-12-16T10:58:34.332384", "MEAN_MOTION": 1.86232417, "ECCENTRICITY": 0.00072794, "INCLINATION": 54.2586, "RA_OF_ASC_NODE": 306.3912, "ARG_OF_PERICENTER": 19.6101, "MEAN_ANOMALY": 340.4043, "EPHEMERIS_TYPE": 0, "CLASSIFICATION_TYPE": "U", "NORAD_CAT_ID": 43647, "ELEMENT_SET_NO": 999, "REV_AT_EPOCH": 4875, "BSTAR": 0, "MEAN_MOTION_DOT": -9.5e-07, "MEAN_MOTION_DDOT": 0}, "tle": {"line1": "1 43647U 18078A   25350.45734181 -.00000095  00000+0  00000+0 0  9999", "line2": "2 43647  54.2586 306.3912 0007279  19.6101 340.4043  1.86232417 48759"}}, "geometry": {"type": "Point", "coordinates": [102.03287198273277, 29.75497086993231]}}]}